COSMOS 2583             
1 62904U 25026C   26068.82129982  .00003688  00000+0  33674-3 0  9999
2 62904  81.9959 175.8530 0006043  76.2523 283.9369 14.94821455 59356
HUBBLE 6                
1 64562U 25135AL  26068.87941708  .00002891  00000+0  28362-3 0  9998
2 64562  97.7627 184.2614 0001563 112.5414 247.5971 14.92986076 39056
