[{"OBJECT_NAME":"COSMOS 2583","OBJECT_ID":"2025-026C","EPOCH":"2026-03-09T19:42:40.304448","MEAN_MOTION":14.94821455,"ECCENTRICITY":0.0006043,"INCLINATION":81.9959,"RA_OF_ASC_NODE":175.853,"ARG_OF_PERICENTER":76.2523,"MEAN_ANOMALY":283.9369,"EPHEMERIS_TYPE":0,"CLASSIFICATION_TYPE":"U","NORAD_CAT_ID":62904,"ELEMENT_SET_NO":999,"REV_AT_EPOCH":5935,"BSTAR":0.00033674,"MEAN_MOTION_DOT":3.688e-5,"MEAN_MOTION_DDOT":0},{"OBJECT_NAME":"HUBBLE 6","OBJECT_ID":"2025-135AL","EPOCH":"2026-03-09T21:06:21.636576","MEAN_MOTION":14.92986076,"ECCENTRICITY":0.00015628,"INCLINATION":97.7627,"RA_OF_ASC_NODE":184.2614,"ARG_OF_PERICENTER":112.5414,"MEAN_ANOMALY":247.5971,"EPHEMERIS_TYPE":0,"CLASSIFICATION_TYPE":"U","NORAD_CAT_ID":64562,"ELEMENT_SET_NO":999,"REV_AT_EPOCH":3905,"BSTAR":0.00028361894,"MEAN_MOTION_DOT":2.891e-5,"MEAN_MOTION_DDOT":0}]
